[Satellite]
VERSION=1.1
NAME=QZS-1 (PRN 183/193)
NICKNAME=QZS-1 (PRN 183/193)
TLE1=1 37158U 10045A   15054.58046087 -.00000204  00000-0  00000+0 0  9993
TLE2=2 37158  40.6074 171.6429 0748708 270.0554  57.7383  1.00265382 16304
